0 IRIDIUM 69
1 25319U 98026A   13281.46524876  .00000307  00000-0  95345-4 0  2726
2 25319 086.3956 092.4085 0002792 070.4819 343.8856 14.37790039809317
0 IRIDIUM 69
1 25319U 98026A   13282.50974127  .00000332  00000-0  10384-3 0  2738
2 25319 086.3956 091.9692 0002712 068.8733 348.4050 14.37791958809467
0 IRIDIUM 69
1 25319U 98026A   13282.50974127  .00000332  00000-0  10384-3 0  2749
2 25319 086.3956 091.9692 0002712 068.8733 348.4050 14.37791958809467
0 IRIDIUM 69
1 25319U 98026A   13283.00756280  .00000284  00000-0  87862-4 0  2756
2 25319 086.3957 091.7599 0002661 068.2600 044.1331 14.37791913809533
0 IRIDIUM 69
1 25319U 98026A   13284.45140350  .00000343  00000-0  10752-3 0  2761
2 25319 086.3957 091.1528 0002544 066.7738 314.2731 14.37793144809740
0 IRIDIUM 69
1 25319U 98026A   13285.43253755  .00000309  00000-0  96206-4 0  2776
2 25319 086.3958 090.7402 0002456 065.9195 350.3105 14.37793840809881
0 IRIDIUM 69
1 25319U 98026A   13286.40745024  .00000327  00000-0  10192-3 0  2789
2 25319 086.3959 090.3301 0002372 065.0079 354.2267 14.37794474810029
0 IRIDIUM 69
1 25319U 98026A   13287.45084416  .00000365  00000-0  11457-3 0  2794
2 25319 086.3961 089.8914 0002287 063.8143 352.6649 14.37795377810173
0 IRIDIUM 69
1 25319U 98026A   13287.45084416  .00000365  00000-0  11457-3 0  2806
2 25319 086.3961 089.8914 0002287 063.8143 352.6649 14.37795377810173
0 IRIDIUM 69
1 25319U 98026A   13288.49465701  .00000506  00000-0  16148-3 0  2811
2 25319 086.3963 089.4524 0002207 062.9281 352.9673 14.37796740810325
0 IRIDIUM 69
1 25319U 98026A   13289.46034942  .00000393  00000-0  12395-3 0  2823
2 25319 086.3966 089.0463 0002115 062.1875 309.0273 14.37797974810469
0 IRIDIUM 69
1 25319U 98026A   13290.04180903  .00000433  00000-0  13742-3 0  2831
2 25319 086.3967 088.8019 0002068 061.9158 077.0676 14.37798259810547
0 IRIDIUM 69
1 25319U 98026A   13291.08535763  .00000445  00000-0  14113-3 0  2841
2 25319 086.3969 088.3631 0001980 061.1283 075.9151 14.37799094810696
0 IRIDIUM 69
1 25319U 98026A   13291.08535763  .00000445  00000-0  14113-3 0  2852
2 25319 086.3969 088.3631 0001980 061.1283 075.9151 14.37799094810696
0 IRIDIUM 69
1 25319U 98026A   13292.38506318  .00000507  00000-0  16187-3 0  2863
2 25319 086.3971 087.8168 0001865 059.7758 320.3786 14.37800064810882
0 IRIDIUM 69
1 25319U 98026A   13293.43507649  .00000542  00000-0  17335-3 0  2874
2 25319 086.3972 087.3755 0001766 058.6075 353.0538 14.37801059811031
0 IRIDIUM 69
1 25319U 98026A   13293.43507649  .00000542  00000-0  17335-3 0  2885
2 25319 086.3972 087.3755 0001766 058.6075 353.0538 14.37801059811031
0 IRIDIUM 69
1 25319U 98026A   13294.48038627  .00000518  00000-0  16558-3 0  2896
2 25319 086.3973 086.9361 0001670 057.5744 001.2663 14.37802144811188
0 IRIDIUM 69
1 25319U 98026A   13295.45347108  .00000509  00000-0  16250-3 0  2902
2 25319 086.3973 086.5272 0001569 056.6576 355.7593 14.37802744811326
